STARLINK-31392          
1 59530U 24073V   26068.41868452 -.00001949  00000+0 -61324-4 0  9992
2 59530  43.0053 319.5899 0002057 264.0165  96.0453 15.27568337106136
REAL                    
1 64875U 25154G   26068.72233414  .00022901  00000+0  82904-3 0  9994
2 64875  97.4133 137.2581 0001853 118.5876 241.5550 15.28408058 34830
